{
  "links" : {
    "next" : "https://api.nasa.gov/neo/rest/v1/feed?start_date=2007-06-23&end_date=2007-06-23&detailed=true&api_key=t0TVs3DtDT2H8Oy2Zy8m2eVrNsAVKAexjcZXUckd",
    "prev" : "https://api.nasa.gov/neo/rest/v1/feed?start_date=2007-06-21&end_date=2007-06-21&detailed=true&api_key=t0TVs3DtDT2H8Oy2Zy8m2eVrNsAVKAexjcZXUckd",
    "self" : "https://api.nasa.gov/neo/rest/v1/feed?start_date=2007-06-22&end_date=2007-06-22&detailed=true&api_key=t0TVs3DtDT2H8Oy2Zy8m2eVrNsAVKAexjcZXUckd"
  },
  "element_count" : 4,
  "near_earth_objects" : {
    "2007-06-22" : [ {
      "links" : {
        "self" : "https://api.nasa.gov/neo/rest/v1/neo/2367248?api_key=t0TVs3DtDT2H8Oy2Zy8m2eVrNsAVKAexjcZXUckd"
      },
      "neo_reference_id" : "2367248",
      "name" : "367248 (2007 MK13)",
      "nasa_jpl_url" : "http://ssd.jpl.nasa.gov/sbdb.cgi?sstr=2367248",
      "absolute_magnitude_h" : 20.0,
      "estimated_diameter" : {
        "kilometers" : {
          "estimated_diameter_min" : 0.2658,
          "estimated_diameter_max" : 0.5943468684
        },
        "meters" : {
          "estimated_diameter_min" : 265.8,
          "estimated_diameter_max" : 594.3468684194
        },
        "miles" : {
          "estimated_diameter_min" : 0.1651604118,
          "estimated_diameter_max" : 0.369309908
        },
        "feet" : {
          "estimated_diameter_min" : 872.047272,
          "estimated_diameter_max" : 1949.9569797852
        }
      },
      "is_potentially_hazardous_asteroid" : true,
      "close_approach_data" : [ {
        "close_approach_date" : "2007-06-22",
        "epoch_date_close_approach" : 1182495600000,
        "relative_velocity" : {
          "kilometers_per_second" : "11.5994441993",
          "kilometers_per_hour" : "41757.999117516",
          "miles_per_hour" : "25946.7967294365"
        },
        "miss_distance" : {
          "astronomical" : "0.0498945513",
          "lunar" : "19.4089813232",
          "kilometers" : "7464119",
          "miles" : "4637988.5"
        },
        "orbiting_body" : "Earth"
      } ],
      "orbital_data" : {
        "orbit_id" : "51",
        "orbit_determination_date" : "2017-04-06 09:22:37",
        "orbit_uncertainty" : "1",
        "minimum_orbit_intersection" : ".0329288",
        "jupiter_tisserand_invariant" : "5.905",
        "epoch_osculation" : "2458000.5",
        "eccentricity" : ".1397970173963595",
        "semi_major_axis" : "1.02465468232282",
        "inclination" : "19.87996921022646",
        "ascending_node_longitude" : "95.09652174011394",
        "orbital_period" : "378.8477570114375",
        "perihelion_distance" : ".8814110138728752",
        "perihelion_argument" : "259.9582539089208",
        "aphelion_distance" : "1.167898350772764",
        "perihelion_time" : "2458132.700547659551",
        "mean_anomaly" : "234.3764578867453",
        "mean_motion" : ".9502497859295272",
        "equinox" : "J2000"
      }
    }, {
      "links" : {
        "self" : "https://api.nasa.gov/neo/rest/v1/neo/2417816?api_key=t0TVs3DtDT2H8Oy2Zy8m2eVrNsAVKAexjcZXUckd"
      },
      "neo_reference_id" : "2417816",
      "name" : "417816 (2007 FA)",
      "nasa_jpl_url" : "http://ssd.jpl.nasa.gov/sbdb.cgi?sstr=2417816",
      "absolute_magnitude_h" : 20.2,
      "estimated_diameter" : {
        "kilometers" : {
          "estimated_diameter_min" : 0.2424124811,
          "estimated_diameter_max" : 0.5420507863
        },
        "meters" : {
          "estimated_diameter_min" : 242.4124811008,
          "estimated_diameter_max" : 542.0507863358
        },
        "miles" : {
          "estimated_diameter_min" : 0.1506280858,
          "estimated_diameter_max" : 0.3368146392
        },
        "feet" : {
          "estimated_diameter_min" : 795.3165644948,
          "estimated_diameter_max" : 1778.3819018419
        }
      },
      "is_potentially_hazardous_asteroid" : true,
      "close_approach_data" : [ {
        "close_approach_date" : "2007-06-22",
        "epoch_date_close_approach" : 1182495600000,
        "relative_velocity" : {
          "kilometers_per_second" : "8.8320979401",
          "kilometers_per_hour" : "31795.5525842599",
          "miles_per_hour" : "19756.5198821475"
        },
        "miss_distance" : {
          "astronomical" : "0.2832021267",
          "lunar" : "110.1656341553",
          "kilometers" : "42366436",
          "miles" : "26325284"
        },
        "orbiting_body" : "Earth"
      } ],
      "orbital_data" : {
        "orbit_id" : "41",
        "orbit_determination_date" : "2017-04-06 09:21:16",
        "orbit_uncertainty" : "0",
        "minimum_orbit_intersection" : ".027811",
        "jupiter_tisserand_invariant" : "5.069",
        "epoch_osculation" : "2458000.5",
        "eccentricity" : ".2656969850166766",
        "semi_major_axis" : "1.250212456361411",
        "inclination" : "16.32800943786515",
        "ascending_node_longitude" : "156.4374425908387",
        "orbital_period" : "510.592180310033",
        "perihelion_distance" : ".9180347760758903",
        "perihelion_argument" : "135.4052189802109",
        "aphelion_distance" : "1.582390136646931",
        "perihelion_time" : "2457860.200678001799",
        "mean_anomaly" : "98.91995582204966",
        "mean_motion" : ".7050636768103401",
        "equinox" : "J2000"
      }
    }, {
      "links" : {
        "self" : "https://api.nasa.gov/neo/rest/v1/neo/3743127?api_key=t0TVs3DtDT2H8Oy2Zy8m2eVrNsAVKAexjcZXUckd"
      },
      "neo_reference_id" : "3743127",
      "name" : "(2016 CZ192)",
      "nasa_jpl_url" : "http://ssd.jpl.nasa.gov/sbdb.cgi?sstr=3743127",
      "absolute_magnitude_h" : 24.6,
      "estimated_diameter" : {
        "kilometers" : {
          "estimated_diameter_min" : 0.0319561887,
          "estimated_diameter_max" : 0.0714562102
        },
        "meters" : {
          "estimated_diameter_min" : 31.9561886721,
          "estimated_diameter_max" : 71.4562101727
        },
        "miles" : {
          "estimated_diameter_min" : 0.0198566489,
          "estimated_diameter_max" : 0.0444008168
        },
        "feet" : {
          "estimated_diameter_min" : 104.8431420431,
          "estimated_diameter_max" : 234.436392583
        }
      },
      "is_potentially_hazardous_asteroid" : false,
      "close_approach_data" : [ {
        "close_approach_date" : "2007-06-22",
        "epoch_date_close_approach" : 1182495600000,
        "relative_velocity" : {
          "kilometers_per_second" : "10.6264258135",
          "kilometers_per_hour" : "38255.1329285604",
          "miles_per_hour" : "23770.2519021935"
        },
        "miss_distance" : {
          "astronomical" : "0.3147367061",
          "lunar" : "122.4325714111",
          "kilometers" : "47083940",
          "miles" : "29256604"
        },
        "orbiting_body" : "Earth"
      } ],
      "orbital_data" : {
        "orbit_id" : "10",
        "orbit_determination_date" : "2017-04-06 08:28:24",
        "orbit_uncertainty" : "6",
        "minimum_orbit_intersection" : ".071717",
        "jupiter_tisserand_invariant" : "6.692",
        "epoch_osculation" : "2458000.5",
        "eccentricity" : ".2630486253359067",
        "semi_major_axis" : ".8769044774154119",
        "inclination" : "16.7365390277293",
        "ascending_node_longitude" : "144.4533846921646",
        "orbital_period" : "299.9348002884523",
        "perihelion_distance" : ".6462359600803861",
        "perihelion_argument" : "206.0642297663216",
        "aphelion_distance" : "1.107572994750438",
        "perihelion_time" : "2457918.770475267108",
        "mean_anomaly" : "98.09674927865997",
        "mean_motion" : "1.200260855538544",
        "equinox" : "J2000"
      }
    }, {
      "links" : {
        "self" : "https://api.nasa.gov/neo/rest/v1/neo/3378803?api_key=t0TVs3DtDT2H8Oy2Zy8m2eVrNsAVKAexjcZXUckd"
      },
      "neo_reference_id" : "3378803",
      "name" : "(2007 MJ13)",
      "nasa_jpl_url" : "http://ssd.jpl.nasa.gov/sbdb.cgi?sstr=3378803",
      "absolute_magnitude_h" : 24.6,
      "estimated_diameter" : {
        "kilometers" : {
          "estimated_diameter_min" : 0.0319561887,
          "estimated_diameter_max" : 0.0714562102
        },
        "meters" : {
          "estimated_diameter_min" : 31.9561886721,
          "estimated_diameter_max" : 71.4562101727
        },
        "miles" : {
          "estimated_diameter_min" : 0.0198566489,
          "estimated_diameter_max" : 0.0444008168
        },
        "feet" : {
          "estimated_diameter_min" : 104.8431420431,
          "estimated_diameter_max" : 234.436392583
        }
      },
      "is_potentially_hazardous_asteroid" : false,
      "close_approach_data" : [ {
        "close_approach_date" : "2007-06-22",
        "epoch_date_close_approach" : 1182495600000,
        "relative_velocity" : {
          "kilometers_per_second" : "10.6699354848",
          "kilometers_per_hour" : "38411.7677451666",
          "miles_per_hour" : "23867.5786858787"
        },
        "miss_distance" : {
          "astronomical" : "0.0140353594",
          "lunar" : "5.459754467",
          "kilometers" : "2099659.75",
          "miles" : "1304668.125"
        },
        "orbiting_body" : "Earth"
      } ],
      "orbital_data" : {
        "orbit_id" : "6",
        "orbit_determination_date" : "2017-04-06 09:06:18",
        "orbit_uncertainty" : "8",
        "minimum_orbit_intersection" : ".0070155",
        "jupiter_tisserand_invariant" : "4.541",
        "epoch_osculation" : "2454273.5",
        "eccentricity" : ".385057970927228",
        "semi_major_axis" : "1.452004592422106",
        "inclination" : "10.89196483118362",
        "ascending_node_longitude" : "268.011676130522",
        "orbital_period" : "639.0729150164938",
        "perihelion_distance" : ".8928986502870333",
        "perihelion_argument" : "58.28620373563531",
        "aphelion_distance" : "2.011110534557179",
        "perihelion_time" : "2454318.927966300801",
        "mean_anomaly" : "334.4096996070217",
        "mean_motion" : ".5633160028237292",
        "equinox" : "J2000"
      }
    } ]
  }
}